[{"OBJECT_NAME":"BEIJING 1","OBJECT_ID":"2005-043A","EPOCH":"2026-03-09T22:42:03.803040","MEAN_MOTION":14.63461381,"ECCENTRICITY":0.00135876,"INCLINATION":98.2733,"RA_OF_ASC_NODE":201.7002,"ARG_OF_PERICENTER":229.3991,"MEAN_ANOMALY":130.6029,"EPHEMERIS_TYPE":0,"CLASSIFICATION_TYPE":"U","NORAD_CAT_ID":28890,"ELEMENT_SET_NO":999,"REV_AT_EPOCH":8613,"BSTAR":0.0001420019,"MEAN_MOTION_DOT":6.87e-6,"MEAN_MOTION_DDOT":0},{"OBJECT_NAME":"IRIDIUM 33 DEB","OBJECT_ID":"1997-051ACG","EPOCH":"2026-02-19T19:32:51.839232","MEAN_MOTION":14.46114347,"ECCENTRICITY":0.0088187,"INCLINATION":86.296,"RA_OF_ASC_NODE":75.0684,"ARG_OF_PERICENTER":318.574,"MEAN_ANOMALY":40.8797,"EPHEMERIS_TYPE":0,"CLASSIFICATION_TYPE":"U","NORAD_CAT_ID":46974,"ELEMENT_SET_NO":999,"REV_AT_EPOCH":58506,"BSTAR":0.0022535,"MEAN_MOTION_DOT":8.465e-5,"MEAN_MOTION_DDOT":0}]
